MEAN_MOTION;ECCENTRICITY;INCLINATION;RA_OF_ASC_NODE;ARG_OF_PERICENTER;MEAN_ANOMALY;BSTAR;MEAN_MOTION_DOT;MEAN_MOTION_DDOT;TYPE
14.34219699;0.000204;86.3974;318.0504;95.5743;264.5685;1.3891E-5;5.9E-7;0;Iridium
14.34219847;0.0002057;86.3973;317.7296;95.8222;264.3208;1.8573E-5;7.2E-7;0;Iridium
14.34219855;0.0002062;86.3972;317.7004;95.8944;264.2487;1.8603E-5;7.2E-7;0;Iridium
14.34219836;0.0002075;86.3972;317.613;95.9832;264.16;1.7255E-5;6.8E-7;0;Iridium
14.34219964;0.0002091;86.3971;317.2922;95.8939;264.2495;2.1224E-5;7.9E-7;0;Iridium
14.34219961;0.0002098;86.3971;317.2048;95.7734;264.3701;2.0181E-5;7.6E-7;0;Iridium
14.34219986;0.0002099;86.397;317.0298;95.4548;264.6887;1.9736E-5;7.5E-7;0;Iridium
14.34220035;0.0002105;86.3969;316.8548;95.4697;264.6739;2.0677E-5;7.8E-7;0;Iridium
14.34220133;0.0002113;86.3968;316.6506;95.7486;264.3951;2.3938E-5;8.7E-7;0;Iridium
14.34220211;0.0002122;86.3967;316.4465;95.6614;264.4824;2.5572E-5;9.1E-7;0;Iridium
14.34220211;0.0002122;86.3967;316.4465;95.6614;264.4824;2.5572E-5;9.1E-7;0;Iridium
14.34220255;0.0002137;86.3965;316.0089;95.7482;264.3958;2.2611E-5;8.3E-7;0;Iridium
14.34220366;0.0002147;86.3965;315.8339;95.8719;264.2721;2.5902E-5;9.2E-7;0;Iridium
14.34220415;0.0002158;86.3963;315.5714;95.7047;264.4395;2.3066E-5;8.4E-7;0;Iridium
14.34216986;0.0002489;86.3967;315.3671;89.5715;270.5766;2.2523E-5;8.3E-7;0;Iridium
14.34216986;0.0002489;86.3967;315.3671;89.5715;270.5766;2.2523E-5;8.3E-7;0;Iridium
14.34217981;0.0002318;86.3964;315.163;93.9168;266.2292;2.1609E-5;8.0E-7;0;Iridium
14.34216867;0.000223;86.3961;314.6671;95.1649;264.9801;2.0607E-5;7.7E-7;0;Iridium
14.3421692;0.0002236;86.3959;314.3754;94.9947;265.1504;1.5531E-5;6.3E-7;0;Iridium
14.34216887;0.000224;86.3959;314.2879;94.9739;265.1713;9.7417E-6;4.7E-7;0;Iridium
14.34216971;0.0002248;86.3957;313.967;94.9195;265.2257;1.1456E-5;5.2E-7;0;Iridium
14.34216999;0.0002253;86.3956;313.8212;94.9649;265.1804;1.2017E-5;5.3E-7;0;Iridium
14.34217047;0.0002258;86.3955;313.5586;94.769;265.3763;1.0978E-5;5.1E-7;0;Iridium
14.34217067;0.0002263;86.3954;313.3835;94.8329;265.3125;1.0899E-5;5.0E-7;0;Iridium
14.34217125;0.0002272;86.3953;313.121;94.6214;265.5241;1.1128E-5;5.1E-7;0;Iridium
14.34217125;0.0002272;86.3953;313.121;94.6214;265.5241;1.1128E-5;5.1E-7;0;Iridium
14.34217159;0.0002278;86.3953;312.9751;94.5918;265.5538;1.2713E-5;5.5E-7;0;Iridium
14.34217269;0.0002286;86.3952;312.7125;94.3069;265.8388;1.6166E-5;6.5E-7;0;Iridium
14.34217278;0.0002287;86.3952;312.6833;94.2848;265.8609;1.5866E-5;6.4E-7;0;Iridium
14.34217279;0.0002287;86.3952;312.6541;94.3023;265.8434;1.5607E-5;6.3E-7;0;Iridium
14.34217401;0.0002299;86.3951;312.3332;94.0276;266.1183;2.0921E-5;7.8E-7;0;Iridium
14.34217419;0.00023;86.3951;312.2748;93.9738;266.1721;2.0104E-5;7.6E-7;0;Iridium
14.34217469;0.0002305;86.3951;312.1289;94.0336;266.1123;2.2294E-5;8.2E-7;0;Iridium
14.34217484;0.0002318;86.395;311.8663;93.808;266.338;1.9449E-5;7.4E-7;0;Iridium
14.34217484;0.0002318;86.395;311.8663;93.808;266.338;1.9449E-5;7.4E-7;0;Iridium
14.34217524;0.0002325;86.3949;311.7203;93.8936;266.2525;2.1291E-5;7.9E-7;0;Iridium
14.3421757;0.0002335;86.3948;311.4577;93.6334;266.5129;1.9844E-5;7.5E-7;0;Iridium
14.34217613;0.0002343;86.3948;311.3118;93.6861;266.4603;2.2055E-5;8.2E-7;0;Iridium
14.34217647;0.0002349;86.3947;311.0491;93.3308;266.8157;2.046E-5;7.7E-7;0;Iridium
14.34217722;0.0002357;86.3946;310.8741;93.3474;266.7992;2.3345E-5;8.5E-7;0;Iridium
14.3421774;0.0002366;86.3945;310.6114;93.1308;267.0158;1.8874E-5;7.3E-7;0;Iridium
14.3421774;0.0002366;86.3945;310.6114;93.1308;267.0158;1.8874E-5;7.3E-7;0;Iridium
14.34217788;0.0002369;86.3945;310.4655;93.1592;266.9875;2.1198E-5;7.9E-7;0;Iridium
14.34217905;0.0002375;86.3943;310.2028;92.9334;267.2134;2.3002E-5;8.4E-7;0;Iridium
14.34217979;0.0002381;86.3943;310.0569;92.9428;267.2041;2.5669E-5;9.2E-7;0;Iridium
14.34218108;0.000239;86.3941;309.765;92.5776;267.5694;2.6417E-5;9.4E-7;0;Iridium
14.3421817;0.0002392;86.3941;309.6191;92.5691;267.5778;2.8059E-5;9.8E-7;0;Iridium
14.34218267;0.0002397;86.394;309.3564;92.2876;267.8594;2.713E-5;9.6E-7;0;Iridium
14.3421828;0.0002398;86.3939;309.2105;92.1894;267.9577;2.5359E-5;9.1E-7;0;Iridium
14.3421836;0.0002403;86.3938;308.9478;92.0586;268.0885;2.3074E-5;8.4E-7;0;Iridium
14.34218355;0.0002404;86.3938;308.9186;92.0641;268.083;2.1855E-5;8.1E-7;0;Iridium
14.34218366;0.0002405;86.3938;308.8894;92.0443;268.1028;2.2088E-5;8.2E-7;0;Iridium
14.34218335;0.0002406;86.3937;308.7142;91.878;268.2691;1.6798E-5;6.7E-7;0;Iridium
14.34218338;0.0002414;86.3936;308.3639;91.6225;268.5247;1.2193E-5;5.4E-7;0;Iridium
14.34218245;0.0002418;86.3935;308.1012;91.3368;268.8105;3.9786E-6;3.1E-7;0;Iridium
14.34218245;0.0002418;86.3935;308.1012;91.3368;268.8105;3.9786E-6;3.1E-7;0;Iridium
14.34218226;0.000242;86.3935;308.072;91.3021;268.8452;2.7014E-6;2.7E-7;0;Iridium
14.34218203;0.0002418;86.3935;307.8677;91.119;269.0283;7.5848E-7;2.2E-7;0;Iridium
14.34218115;0.0002344;86.3935;307.4006;87.6623;272.4841;1.4994E-7;2.0E-7;0;Iridium
14.34218115;0.0002344;86.3935;307.4006;87.6623;272.4841;1.4994E-7;2.0E-7;0;Iridium
14.34218101;0.0002431;86.3933;307.1087;90.8329;269.3145;-3.5018E-6;1.0E-7;0;Iridium
14.34218033;0.0002357;86.3933;306.846;87.3337;272.8128;-3.2998E-6;1.1E-7;0;Iridium
14.34218017;0.0002359;86.3932;306.7;87.4311;272.7155;-3.5698E-6;1.0E-7;0;Iridium
14.34217949;0.0002373;86.3931;306.4081;87.5717;272.5751;-5.9748E-6;3.0E-8;0;Iridium
14.34217955;0.0002377;86.3931;306.2912;87.6085;272.5382;-4.9151E-6;6.0E-8;0;Iridium
14.34217906;0.0002379;86.393;305.97;87.3446;272.8022;-6.1191E-6;3.0E-8;0;Iridium
14.34217895;0.0002381;86.393;305.8533;87.3304;272.8164;-5.9727E-6;3.0E-8;0;Iridium
14.34217848;0.0002382;86.3929;305.5613;86.8577;273.2891;-7.1559E-6;0;0;Iridium
14.3421783;0.0002382;86.3929;305.4445;86.7341;273.4127;-7.2317E-6;0;0;Iridium
14.34217824;0.0002386;86.3928;305.1817;86.4766;273.6703;-6.6439E-6;1.0E-8;0;Iridium
14.34217821;0.0002386;86.3928;305.1525;86.4645;273.6823;-6.6457E-6;1.0E-8;0;Iridium
14.34217779;0.0002387;86.3927;304.7729;86.2319;273.915;-6.7766E-6;1.0E-8;0;Iridium
14.34217777;0.0002387;86.3927;304.5977;86.1095;274.0373;-5.7789E-6;4.0E-8;0;Iridium
14.34217788;0.0002385;86.3927;304.1888;85.6681;274.4787;-3.5581E-6;1.0E-7;0;Iridium
14.34217769;0.0002383;86.3927;303.8968;85.291;274.8558;-3.5608E-6;1.0E-7;0;Iridium
14.34217715;0.0002377;86.3927;303.4881;84.8556;275.2911;-4.8277E-6;6.0E-8;0;Iridium
14.34217676;0.0002378;86.3928;303.3421;84.775;275.3717;-5.9465E-6;3.0E-8;0;Iridium
14.3421762;0.0002367;86.3927;303.0793;84.0423;276.1042;-7.7113E-6;-2.0E-8;0;Iridium
14.34217616;0.0002366;86.3927;302.9333;83.9298;276.2168;-7.1539E-6;0;0;Iridium
14.34217606;0.0002364;86.3927;302.6413;83.63;276.5165;-6.8397E-6;1.0E-8;0;Iridium
14.34217605;0.0002363;86.3927;302.5245;83.6358;276.5107;-6.3268E-6;2.0E-8;0;Iridium
14.34217616;0.0002357;86.3926;302.2325;83.4367;276.7097;-5.0519E-6;6.0E-8;0;Iridium
14.34217597;0.0002355;86.3926;302.0865;83.3757;276.7707;-5.5755E-6;4.0E-8;0;Iridium
14.34217625;0.0002352;86.3926;301.8237;83.1119;277.0344;-3.9518E-6;9.0E-8;0;Iridium
14.34217625;0.0002352;86.3926;301.8237;83.1119;277.0344;-3.9518E-6;9.0E-8;0;Iridium
14.34217626;0.0002349;86.3926;301.6778;83.0462;277.1001;-3.2812E-6;1.1E-7;0;Iridium
14.34217594;0.0002345;86.3925;301.4442;82.8519;277.2944;-4.2861E-6;8.0E-8;0;Iridium
14.34217565;0.0002339;86.3925;301.2106;82.6411;277.5051;-5.1577E-6;5.0E-8;0;Iridium
14.3421755;0.0002337;86.3924;301.0062;82.4939;277.6522;-5.232E-6;5.0E-8;0;Iridium
14.34217515;0.0002332;86.3924;300.831;82.3605;277.7856;-6.0436E-6;3.0E-8;0;Iridium
14.34217464;0.0002324;86.3924;300.5682;82.2029;277.9431;-7.7642E-6;-2.0E-8;0;Iridium
14.34217462;0.0002324;86.3924;300.5389;82.2608;277.8852;-7.5663E-6;-1.0E-8;0;Iridium
14.34217441;0.0002322;86.3923;300.4221;82.2219;277.924;-8.0089E-6;-3.0E-8;0;Iridium
14.34217433;0.0002314;86.3923;300.1301;81.7576;278.3882;-7.1433E-6;0;0;Iridium
14.34217429;0.0002314;86.3923;300.0133;81.7006;278.4452;-6.5626E-6;1.0E-8;0;Iridium
14.34217456;0.0002309;86.3923;299.7212;81.4555;278.6902;-4.3273E-6;8.0E-8;0;Iridium
14.34217452;0.0002305;86.3923;299.5752;81.4442;278.7015;-3.7854E-6;9.0E-8;0;Iridium
14.3421743;0.0002295;86.3924;299.1664;81.2931;278.8525;-2.9732E-6;1.1E-7;0;Iridium
14.34217412;0.0002292;86.3924;299.1372;81.2771;278.8684;-3.7559E-6;9.0E-8;0;Iridium
14.34217402;0.0002289;86.3924;298.9035;81.1991;278.9464;-3.3296E-6;1.0E-7;0;Iridium
14.34217358;0.0002283;86.3924;298.7575;81.1801;278.9653;-5.0067E-6;6.0E-8;0;Iridium
14.34217286;0.000228;86.3924;298.4947;81.0777;279.0677;-7.4121E-6;-1.0E-8;0;Iridium
14.34217254;0.0002274;86.3925;298.3195;80.9185;279.2268;-8.2555E-6;-3.0E-8;0;Iridium
14.34217214;0.0002267;86.3926;298.0566;80.7366;279.4086;-8.8638E-6;-5.0E-8;0;Iridium
14.34217203;0.0002264;86.3926;297.9106;80.7747;279.3705;-8.645E-6;-4.0E-8;0;Iridium
14.34217138;0.0002255;86.3926;297.6478;80.5475;279.5976;-1.0349E-5;-9.0E-8;0;Iridium
14.34217123;0.0002251;86.3926;297.5018;80.5924;279.5526;-1.0014E-5;-8.0E-8;0;Iridium
14.34217147;0.0002241;86.3926;297.239;80.231;279.9139;-7.7897E-6;-2.0E-8;0;Iridium
14.34217147;0.0002241;86.3926;297.239;80.231;279.9139;-7.7897E-6;-2.0E-8;0;Iridium
14.34217131;0.0002237;86.3926;297.0638;80.4082;279.7366;-7.6423E-6;-2.0E-8;0;Iridium
14.34217125;0.0002229;86.3926;296.8009;80.1953;279.9495;-7.0798E-6;0;0;Iridium
14.34217125;0.0002229;86.3926;296.8009;80.1953;279.9495;-7.0798E-6;0;0;Iridium
14.34217117;0.0002224;86.3926;296.6549;80.2508;279.8939;-6.7879E-6;1.0E-8;0;Iridium
14.34217101;0.0002218;86.3926;296.3921;80.2131;279.9315;-6.5061E-6;2.0E-8;0;Iridium
14.34217066;0.000221;86.3927;296.2462;80.0397;280.1048;-7.4725E-6;-1.0E-8;0;Iridium
14.34216989;0.0002194;86.3927;295.9833;79.8251;280.3192;-1.0273E-5;-9.0E-8;0;Iridium
14.34216958;0.000219;86.3927;295.8081;80.036;280.1083;-1.078E-5;-1.0E-7;0;Iridium
14.34216937;0.0002179;86.3927;295.5746;79.7655;280.3786;-1.0642E-5;-1.0E-7;0;Iridium
14.34217017;0.0002163;86.3928;295.1366;79.9089;280.2351;-5.0349E-6;6.0E-8;0;Iridium
